{
  "norad_id": 66256,
  "name": "STARLINK-35619",
  "history": [
    {
      "epoch": "2026-03-28T18:38:01.860288",
      "apogee_km": 475.89735615689915,
      "perigee_km": 474.5325796460111,
      "latitude_deg": 36.34668501677068,
      "longitude_deg": 160.13540031993762,
      "semi_major_axis_km": 6853.351967901455,
      "eccentricity": 9.957e-05,
      "inclination_deg": 53.1579,
      "raan_deg": 194.8867,
      "arg_perigee_deg": 79.5112,
      "mean_anomaly_deg": 280.6001,
      "mean_motion_rev_day": 15.30200034
    }
  ]
}