{"fetched_at":"2026-03-29T16:36:15Z","count":15609,"tles":[{"name":"STARLINK-35619","line1":"1 66256U 25245Y   26087.77641042  .00033483  00000+0  11375-2 0  9996","line2":"2 66256  53.1579 194.8867 0000995  79.5112 280.6001 15.30200034 24188","category":"Starlink"}]}